{
"type": "FeatureCollection",
"name": "gauges_with_qpf",
"crs": { "type": "name", "properties": { "name": "urn:ogc:def:crs:OGC:1.3:CRS84" } },
"features": [
{ "type": "Feature", "properties": { "source": "NOAA", "site_id": "8454000", "site_name": "Providence", "lat": "41.8072", "lon": "-71.4007", "stage_ft": 2.702, "stage_datetime": "2026-06-27T19:12:00", "tier": "normal", "action_stage": 9.33, "flood_stage": 10.33, "major_stage": 12.33, "url": "https://tidesandcurrents.noaa.gov/stationhome.html?id=8454000", "city_lat": 41.7962409, "city_lon": -71.5992372, "fetched_at": "2026-06-27T18:04:31.945Z", "flood_event_count": 4, "nearest_flood_miles": 10.25, "nearest_flood_title": "Flash flood warning issued for parts of Massachusetts, Rhode Island this morning", "color": "#2d6a4f", "nearby_flood_titles": "['Flash flood warning issued for parts of Massachusetts, Rhode Island this morning'\n 'Flash flood warning issued for parts of Massachusetts, Rhode Island this morning'\n 'High tides, storm surge may splash over Boston as 12-foot waves peak'\n 'Flood warning issued for Wolf River in New London April 4 to 10']", "qpf_day1_in": "2.03", "qpf_day2_in": "0.0", "qpf_day3_in": "0.0", "qpf_day1_inches": "0.08", "qpf_day2_inches": "0.0", "qpf_day3_inches": "0.0", "flood_risk_elevated": false, "qpf_source": "wpc_shapefile", "qpf_updated_utc": "2026-06-27T19:37:38.501594+00:00" }, "geometry": { "type": "Point", "coordinates": [ -71.4007, 41.8072 ] } },
{ "type": "Feature", "properties": { "source": "NOAA", "site_id": "8454000", "site_name": "Providence", "lat": "41.8072", "lon": "-71.4007", "stage_ft": 2.702, "stage_datetime": "2026-06-27T19:12:00", "tier": "normal", "action_stage": 9.33, "flood_stage": 10.33, "major_stage": 12.33, "url": "https://tidesandcurrents.noaa.gov/stationhome.html?id=8454000", "city_lat": 41.7962409, "city_lon": -71.5992372, "fetched_at": "2026-06-27T18:04:31.945Z", "flood_event_count": 4, "nearest_flood_miles": 10.25, "nearest_flood_title": "Flash flood warning issued for parts of Massachusetts, Rhode Island this morning", "color": "#2d6a4f", "nearby_flood_titles": "['Flash flood warning issued for parts of Massachusetts, Rhode Island this morning'\n 'Flash flood warning issued for parts of Massachusetts, Rhode Island this morning'\n 'High tides, storm surge may splash over Boston as 12-foot waves peak'\n 'Flood warning issued for Wolf River in New London April 4 to 10']", "qpf_day1_in": "2.03", "qpf_day2_in": "0.0", "qpf_day3_in": "0.0", "qpf_day1_inches": "0.08", "qpf_day2_inches": "0.0", "qpf_day3_inches": "0.0", "flood_risk_elevated": false, "qpf_source": "wpc_shapefile", "qpf_updated_utc": "2026-06-27T19:37:38.501594+00:00" }, "geometry": { "type": "Point", "coordinates": [ -71.4007, 41.8072 ] } },
{ "type": "Feature", "properties": { "source": "NOAA", "site_id": "9454240", "site_name": "Valdez", "lat": "61.125", "lon": "-146.362", "stage_ft": 5.918, "stage_datetime": "2026-06-27T19:06:00", "tier": "normal", "action_stage": 19.89, "flood_stage": 20.89, "major_stage": 22.89, "url": "https://tidesandcurrents.noaa.gov/stationhome.html?id=9454240", "city_lat": 65.538809, "city_lon": -144.708313, "fetched_at": "2026-06-27T18:04:31.945Z", "flood_event_count": 0, "nearest_flood_miles": null, "nearest_flood_title": null, "color": "#2d6a4f", "nearby_flood_titles": [ ], "qpf_day1_in": "7.87", "qpf_day2_in": "2.03", "qpf_day3_in": "1.27", "qpf_day1_inches": "0.31", "qpf_day2_inches": "0.08", "qpf_day3_inches": "0.05", "flood_risk_elevated": false, "qpf_source": "wpc_shapefile", "qpf_updated_utc": "2026-06-27T19:37:38.501594+00:00" }, "geometry": { "type": "Point", "coordinates": [ -146.362, 61.125 ] } }
]
}
